NORAD_CAT_ID,OBJECT_NAME,OBJECT_TYPE,EPOCH,MEAN_MOTION,ECCENTRICITY,INCLINATION,RA_OF_ASC_NODE,ARG_OF_PERICENTER,MEAN_ANOMALY,BSTAR,MEAN_MOTION_DOT,MEAN_MOTION_DDOT,TLE_LINE0,TLE_LINE1,TLE_LINE2,SEMIMAJOR_AXIS,PERIOD,APOGEE,PERIGEE,DECAYED
55959.0,STARLINK-5929,PAYLOAD,2023-05-17 01:27:39,15.69904408,0.0002631,69.9997,11.5448,313.0808,47.0167,-1.4073e-05,-1.902e-05,0.0,0 STARLINK-5929,1 55959U 23037AX  23137.06086938 -.00001902  00000-0 -14073-4 0  9997,2 55959  69.9997  11.5448 0002631 313.0808  47.0167 15.69904408  9990,6737.307,91.725,360.945,357.4,0.0
55959.0,STARLINK-5929,PAYLOAD,2023-05-17 18:16:54,15.69919518,0.000365,69.9994,9.5744,270.1845,89.8933,3.0555e-05,3.462e-05,0.0,0 STARLINK-5929,1 55959U 23037AX  23137.76174003  .00003462  00000-0  30555-4 0  9999,2 55959  69.9994   9.5744 0003650 270.1845  89.8933 15.69919518 10107,6737.264,91.724,361.588,356.67,0.0
55959.0,STARLINK-5929,PAYLOAD,2023-05-18 01:55:38,15.6992896,0.0003411,70.0007,8.6762,256.3453,103.7363,1.6245e-05,1.741e-05,0.0,0 STARLINK-5929,1 55959U 23037AX  23138.08031201  .00001741  00000-0  16245-4 0  9995,2 55959  70.0007   8.6762 0003411 256.3453 103.7363 15.69928960 10150,6737.237,91.724,361.4,356.804,0.0
55959.0,STARLINK-5929,PAYLOAD,2023-05-18 14:09:40,15.6991471,0.0003465,70.0,7.2427,260.8485,99.2319,4.2497e-05,4.898e-05,0.0,0 STARLINK-5929,1 55959U 23037AX  23138.59004991  .00004898  00000-0  42497-4 0  9991,2 55959  70.0000   7.2427 0003465 260.8485  99.2319 15.69914710  9897,6737.278,91.725,361.477,356.809,0.0
55959.0,STARLINK-5929,PAYLOAD,2023-05-18 15:41:25,15.69916246,0.000336,69.9999,7.0631,265.9666,94.1145,3.4283e-05,3.91e-05,0.0,0 STARLINK-5929,1 55959U 23037AX  23138.65376719  .00003910  00000-0  34283-4 0  9996,2 55959  69.9999   7.0631 0003360 265.9666  94.1145 15.69916246 10245,6737.274,91.725,361.402,356.875,0.0
55959.0,STARLINK-5929,PAYLOAD,2023-05-19 19:12:57,15.69921129,0.0002976,69.9981,3.8383,266.9031,93.1824,7.0609e-06,6.36e-06,0.0,0 STARLINK-5929,1 55959U 23037AX  23139.80067109  .00000636  00000-0  70609-5 0  9999,2 55959  69.9981   3.8383 0002976 266.9031  93.1824 15.69921129 10084,6737.26,91.724,361.13,357.12,0.0
55959.0,STARLINK-5929,PAYLOAD,2023-05-20 01:19:57,15.69933864,0.0003831,69.9975,3.1224,269.0865,90.9891,1.3043e-05,1.356e-05,0.0,0 STARLINK-5929,1 55959U 23037AX  23140.05552707  .00001356  00000-0  13043-4 0  9999,2 55959  69.9975   3.1224 0003831 269.0865  90.9891 15.69933864 10464,6737.223,91.724,361.669,356.507,0.0
55959.0,STARLINK-5929,PAYLOAD,2023-05-20 21:12:44,15.69927579,0.0003497,69.999,0.7935,274.1045,85.9751,1.0595e-05,1.061e-05,0.0,0 STARLINK-5929,1 55959U 23037AX  23140.88384565  .00001061  00000-0  10595-4 0  9997,2 55959  69.9990   0.7935 0003497 274.1045  85.9751 15.69927579 10250,6737.241,91.724,361.462,356.75,0.0
55959.0,STARLINK-5929,PAYLOAD,2023-05-21 00:16:15,15.69907346,0.0003263,69.9979,0.4341,272.5363,87.5459,-2.9689e-05,-3.778e-05,0.0,0 STARLINK-5929,1 55959U 23037AX  23141.01128941 -.00003778  00000-0 -29689-4 0  9990,2 55959  69.9979   0.4341 0003263 272.5363  87.5459 15.69907346 10614,6737.299,91.725,361.362,356.966,0.0
55959.0,STARLINK-5929,PAYLOAD,2023-05-21 14:02:01,15.6991285,0.0003339,69.998,358.8206,273.5394,86.542,-4.0763e-05,-5.109e-05,0.0,0 STARLINK-5929,1 55959U 23037AX  23141.58474251 -.00005109  00000-0 -40763-4 0  9996,2 55959  69.9980 358.8206 0003339 273.5394  86.5420 15.69912850 10360,6737.283,91.725,361.398,356.899,0.0
55959.0,STARLINK-5929,PAYLOAD,2023-05-21 15:33:46,15.6991492,0.0003111,69.9985,358.6458,280.1237,79.9608,-2.1772e-05,-2.828e-05,0.0,0 STARLINK-5929,1 55959U 23037AX  23141.64845851 -.00002828  00000-0 -21772-4 0  9995,2 55959  69.9985 358.6458 0003111 280.1237  79.9608 15.69914920 10713,6737.277,91.725,361.238,357.046,0.0
55959.0,STARLINK-5929,PAYLOAD,2023-05-21 18:37:16,15.69928347,0.0003663,69.9992,358.2855,277.2923,82.7856,1.039e-05,1.037e-05,0.0,0 STARLINK-5929,1 55959U 23037AX  23141.77588566  .00001037  00000-0  10390-4 0  9999,2 55959  69.9992 358.2855 0003663 277.2923  82.7856 15.69928347 10398,6737.239,91.724,361.572,356.636,0.0
55959.0,STARLINK-5929,PAYLOAD,2023-05-21 23:12:31,15.69939966,0.0003509,69.9997,357.7447,268.0886,91.9908,2.7965e-05,3.153e-05,0.0,0 STARLINK-5929,1 55959U 23037AX  23141.96702875  .00003153  00000-0  27965-4 0  9998,2 55959  69.9997 357.7447 0003509 268.0886  91.9908 15.69939966 10769,6737.206,91.723,361.435,356.707,0.0
55959.0,STARLINK-5929,PAYLOAD,2023-05-22 16:01:48,15.69927026,0.0003682,69.9991,355.777,269.6425,90.4348,2.5925e-05,2.906e-05,0.0,0 STARLINK-5929,1 55959U 23037AX  23142.66791725  .00002906  00000-0  25925-4 0  9997,2 55959  69.9991 355.7770 0003682 269.6425  90.4348 15.69927026 10876,6737.243,91.724,361.588,356.627,0.0
55959.0,STARLINK-5929,PAYLOAD,2023-05-22 19:05:18,15.69923612,0.0003849,69.9987,355.4189,270.6164,89.459,1.8489e-05,2.011e-05,0.0,0 STARLINK-5929,1 55959U 23037AX  23142.79535221  .00002011  00000-0  18489-4 0  9992,2 55959  69.9987 355.4189 0003849 270.6164  89.4590 15.69923612 10558,6737.253,91.724,361.711,356.524,0.0
55959.0,STARLINK-5929,PAYLOAD,2023-05-23 04:15:49,15.69917826,0.0003772,69.9967,354.3438,265.6376,94.4389,6.2532e-06,5.39e-06,0.0,0 STARLINK-5929,1 55959U 23037AX  23143.17765631  .00000539  00000-0  62532-5 0  9997,2 55959  69.9967 354.3438 0003772 265.6376  94.4389 15.69917826 10951,6737.269,91.725,361.675,356.593,0.0
55959.0,STARLINK-5929,PAYLOAD,2023-05-23 16:29:51,15.69913123,0.0003524,69.9985,352.9089,275.9792,84.1002,-1.0766e-05,-1.507e-05,0.0,0 STARLINK-5929,1 55959U 23037AX  23143.68740408 -.00001507  00000-0 -10766-4 0  9997,2 55959  69.9985 352.9089 0003524 275.9792  84.1002 15.69913123 11032,6737.283,91.725,361.522,356.773,0.0
55959.0,STARLINK-5929,PAYLOAD,2023-05-24 00:08:35,15.69936417,0.0003618,69.9976,352.0133,262.3243,97.7542,1.0947e-05,1.104e-05,0.0,0 STARLINK-5929,1 55959U 23037AX  23144.00596701  .00001104  00000-0  10947-4 0  9991,2 55959  69.9976 352.0133 0003618 262.3243  97.7542 15.69936417 11083,6737.216,91.723,361.518,356.643,0.0
55959.0,STARLINK-5929,PAYLOAD,2023-05-24 15:26:06,15.69930194,0.0003489,69.9979,350.2241,257.404,102.6765,1.7182e-05,1.854e-05,0.0,0 STARLINK-5929,1 55959U 23037AX  23144.64313490  .00001854  00000-0  17182-4 0  9993,2 55959  69.9979 350.2241 0003489 257.4040 102.6765 15.69930194 11182,6737.234,91.724,361.449,356.748,0.0
55959.0,STARLINK-5929,PAYLOAD,2023-05-25 17:25:54,15.69925298,0.0003464,69.9972,347.1769,259.628,100.4525,-3.5998e-06,-6.46e-06,0.0,0 STARLINK-5929,1 55959U 23037AX  23145.72632753 -.00000646  00000-0 -35998-5 0  9995,2 55959  69.9972 347.1769 0003464 259.6280 100.4525 15.69925298 11356,6737.248,91.724,361.447,356.779,0.0
55959.0,STARLINK-5929,PAYLOAD,2023-05-25 22:01:09,15.69927796,0.0003369,69.9974,346.6397,257.7461,102.3357,3.813e-06,2.46e-06,0.0,0 STARLINK-5929,1 55959U 23037AX  23145.91747439  .00000246  00000-0  38130-5 0  9999,2 55959  69.9974 346.6397 0003369 257.7461 102.3357 15.69927796 11048,6737.241,91.724,361.375,356.836,0.0
55959.0,STARLINK-5929,PAYLOAD,2023-05-26 13:18:41,15.69921712,0.0003414,69.9974,344.8475,257.1252,102.9563,-1.1317e-06,-3.49e-06,0.0,0 STARLINK-5929,1 55959U 23037AX  23146.55464421 -.00000349  00000-0 -11317-5 0  9991,2 55959  69.9974 344.8475 0003414 257.1252 102.9563 15.69921712 11146,6737.258,91.724,361.423,356.823,0.0
55959.0,STARLINK-5929,PAYLOAD,2023-05-26 16:22:11,15.69924861,0.0003487,69.9974,344.4897,259.054,101.0263,5.4794e-07,-1.47e-06,0.0,0 STARLINK-5929,1 55959U 23037AX  23146.68207521 -.00000147  00000-0  54794-6 0  9993,2 55959  69.9974 344.4897 0003487 259.0540 101.0263 15.69924861 11506,6737.249,91.724,361.463,356.765,0.0
55959.0,STARLINK-5929,PAYLOAD,2023-05-26 20:57:26,15.69928856,0.0003419,69.9979,343.9518,263.755,96.3256,2.6325e-06,1.04e-06,0.0,0 STARLINK-5929,1 55959U 23037AX  23146.87322241  .00000104  00000-0  26325-5 0  9991,2 55959  69.9979 343.9518 0003419 263.7550  96.3256 15.69928856 11194,6737.238,91.724,361.406,356.799,0.0
55959.0,STARLINK-5929,PAYLOAD,2023-05-27 21:25:28,15.69927586,0.0003205,69.9978,341.0857,263.0124,97.0707,1.6837e-05,1.812e-05,0.0,0 STARLINK-5929,1 55959U 23037AX  23147.89268815  .00001812  00000-0  16837-4 0  9993,2 55959  69.9978 341.0857 0003205 263.0124  97.0707 15.69927586 11357,6737.241,91.724,361.265,356.947,0.0
55959.0,STARLINK-5929,PAYLOAD,2023-05-27 22:57:13,15.6992536,0.0003268,69.9973,340.9065,266.0214,94.0608,1.3135e-05,1.367e-05,0.0,0 STARLINK-5929,1 55959U 23037AX  23147.95640720  .00001367  00000-0  13135-4 0  9992,2 55959  69.9973 340.9065 0003268 266.0214  94.0608 15.69925360 11707,6737.248,91.724,361.314,356.911,0.0
55959.0,STARLINK-5929,PAYLOAD,2023-05-28 20:21:44,15.69932186,0.0003384,69.9967,338.398,263.7444,96.3366,6.2e-06,5.33e-06,0.0,0 STARLINK-5929,1 55959U 23037AX  23148.84843722  .00000533  00000-0  62000-5 0  9998,2 55959  69.9967 338.3980 0003384 263.7444  96.3366 15.69932186 11503,6737.228,91.724,361.373,356.813,0.0
55959.0,STARLINK-5929,PAYLOAD,2023-05-29 05:32:17,15.6991116,0.0003089,69.9977,337.3234,272.7322,87.352,-1.5329e-06,-3.97e-06,0.0,0 STARLINK-5929,1 55959U 23037AX  23149.23075429 -.00000397  00000-0 -15329-5 0  9995,2 55959  69.9977 337.3234 0003089 272.7322  87.3520 15.69911160 11907,6737.288,91.725,361.234,357.072,0.0
55959.0,STARLINK-5929,PAYLOAD,2023-05-29 14:42:47,15.69921269,0.0003153,69.9973,336.2487,271.9161,88.1674,-3.0861e-07,-2.5e-06,0.0,0 STARLINK-5929,1 55959U 23037AX  23149.61304955 -.00000250  00000-0 -30861-6 0  9993,2 55959  69.9973 336.2487 0003153 271.9161  88.1674 15.69921269 11624,6737.259,91.724,361.249,357.0,0.0
55959.0,STARLINK-5929,PAYLOAD,2023-05-29 20:49:47,15.69927948,0.0003004,69.997,335.531,271.5264,88.5587,5.7107e-06,4.74e-06,0.0,0 STARLINK-5929,1 55959U 23037AX  23149.86791129  .00000474  00000-0  57107-5 0  9990,2 55959  69.9970 335.5310 0003004 271.5264  88.5587 15.69927948 11664,6737.24,91.724,361.129,357.081,0.0
